[{"OBJECT_NAME":"KINEIS-4C","OBJECT_ID":"2025-056B","EPOCH":"2026-03-09T21:39:57.435840","MEAN_MOTION":14.72281465,"ECCENTRICITY":3.741e-5,"INCLINATION":97.9935,"RA_OF_ASC_NODE":195.3707,"ARG_OF_PERICENTER":97.3145,"MEAN_ANOMALY":262.8105,"EPHEMERIS_TYPE":0,"CLASSIFICATION_TYPE":"U","NORAD_CAT_ID":63301,"ELEMENT_SET_NO":999,"REV_AT_EPOCH":5252,"BSTAR":0.00047792362,"MEAN_MOTION_DOT":2.971e-5,"MEAN_MOTION_DDOT":0},{"OBJECT_NAME":"FENGYUN 1C DEB","OBJECT_ID":"1999-025DMQ","EPOCH":"2026-02-27T14:00:37.527552","MEAN_MOTION":14.36228838,"ECCENTRICITY":0.01758208,"INCLINATION":99.1577,"RA_OF_ASC_NODE":182.8214,"ARG_OF_PERICENTER":15.5424,"MEAN_ANOMALY":345.1063,"EPHEMERIS_TYPE":0,"CLASSIFICATION_TYPE":"U","NORAD_CAT_ID":35160,"ELEMENT_SET_NO":999,"REV_AT_EPOCH":66034,"BSTAR":0.00023540781,"MEAN_MOTION_DOT":7.64e-6,"MEAN_MOTION_DDOT":0}]
